CCSDS_OMM_VERS,COMMENT,CREATION_DATE,ORIGINATOR,OBJECT_NAME,OBJECT_ID,CENTER_NAME,REF_FRAME,TIME_SYSTEM,MEAN_ELEMENT_THEORY,EPOCH,MEAN_MOTION,ECCENTRICITY,INCLINATION,RA_OF_ASC_NODE,ARG_OF_PERICENTER,MEAN_ANOMALY,EPHEMERIS_TYPE,CLASSIFICATION_TYPE,NORAD_CAT_ID,ELEMENT_SET_NO,REV_AT_EPOCH,BSTAR,MEAN_MOTION_DOT,MEAN_MOTION_DDOT,SEMIMAJOR_AXIS,PERIOD,APOAPSIS,PERIAPSIS,OBJECT_TYPE,RCS_SIZE,COUNTRY_CODE,LAUNCH_DATE,SITE,DECAY_DATE,FILE,GP_ID,TLE_LINE0,TLE_LINE1,TLE_LINE2
"2.0","GENERATED VIA SPACE-TRACK.ORG API","2024-05-01T20:24:06","18 SPCS","STARLINK-30805","2023-170J","EARTH","TEME","UTC","SGP4","2024-05-01T10:29:14.898336","15.02550424","0.00017220","43.0038","275.8684","265.8547","94.2099","0","U","58214","999","2840","0.00047506000000","0.00006222","0.0000000000000","6937.172","95.837","560.232","557.843","PAYLOAD","LARGE","US","2023-11-03","AFETR","","4304190","256232108","0 STARLINK-30805","1 58214U 23170J   24122.43697799  .00006222  00000-0  47506-3 0  9995","2 58214  43.0038 275.8684 0001722 265.8547  94.2099 15.02550424 28404"
"2.0","GENERATED VIA SPACE-TRACK.ORG API","2024-05-02T02:46:58","18 SPCS","STARLINK-30805","2023-170J","EARTH","TEME","UTC","SGP4","2024-05-01T16:52:09.772896","15.02544581","0.00014870","43.0034","274.4237","269.1676","90.8996","0","U","58214","999","2844","0.00027920000000","0.00003571","0.0000000000000","6937.190","95.837","560.087","558.024","PAYLOAD","LARGE","US","2023-11-03","AFETR","","4304452","256266706","0 STARLINK-30805","1 58214U 23170J   24122.70289089  .00003571  00000-0  27920-3 0  9996","2 58214  43.0034 274.4237 0001487 269.1676  90.8996 15.02544581 28446"
"2.0","GENERATED VIA SPACE-TRACK.ORG API","2024-05-02T07:06:18","18 SPCS","STARLINK-30805","2023-170J","EARTH","TEME","UTC","SGP4","2024-05-02T02:26:31.622496","15.02548130","0.00015340","43.0048","272.2559","271.5711","88.4956","0","U","58214","999","2851","0.00029619000000","0.00003801","0.0000000000000","6937.179","95.837","560.108","557.980","PAYLOAD","LARGE","US","2023-11-03","AFETR","","4304788","256276106","0 STARLINK-30805","1 58214U 23170J   24123.10175489  .00003801  00000-0  29619-3 0  9992","2 58214  43.0048 272.2559 0001534 271.5711  88.4956 15.02548130 28515"
"2.0","GENERATED VIA SPACE-TRACK.ORG API","2024-05-02T19:50:56","18 SPCS","STARLINK-30805","2023-170J","EARTH","TEME","UTC","SGP4","2024-05-02T12:00:53.586144","15.02548161","0.00008680","43.0019","270.0897","275.0704","85.0039","0","U","58214","999","2856","0.00015761000000","0.00001927","0.0000000000000","6937.179","95.837","559.646","558.442","PAYLOAD","LARGE","US","2023-11-03","AFETR","","4305180","256311958","0 STARLINK-30805","1 58214U 23170J   24123.50062021  .00001927  00000-0  15761-3 0  9993","2 58214  43.0019 270.0897 0000868 275.0704  85.0039 15.02548161 28568"
"2.0","GENERATED VIA SPACE-TRACK.ORG API","2024-05-02T22:56:17","18 SPCS","STARLINK-30805","2023-170J","EARTH","TEME","UTC","SGP4","2024-05-02T19:59:32.395776","15.02538248","0.00007760","43.0039","268.2849","251.9123","108.1635","0","U","58214","999","2862","0.00007274300000","0.00000779","0.0000000000000","6937.210","95.838","559.613","558.536","PAYLOAD","LARGE","US","2023-11-03","AFETR","","4305433","256320192","0 STARLINK-30805","1 58214U 23170J   24123.83301384  .00000779  00000-0  72743-4 0  9995","2 58214  43.0039 268.2849 0000776 251.9123 108.1635 15.02538248 28623"
"2.0","GENERATED VIA SPACE-TRACK.ORG API","2024-05-03T07:06:20","18 SPCS","STARLINK-30805","2023-170J","EARTH","TEME","UTC","SGP4","2024-05-03T02:22:26.363136","15.02553412","0.00015010","43.0038","266.8398","271.3853","88.6817","0","U","58214","999","2866","0.00027354000000","0.00003495","0.0000000000000","6937.163","95.837","560.069","557.987","PAYLOAD","LARGE","US","2023-11-03","AFETR","","4305724","256327799","0 STARLINK-30805","1 58214U 23170J   24124.09891624  .00003495  00000-0  27354-3 0  9990","2 58214  43.0038 266.8398 0001501 271.3853  88.6817 15.02553412 28666"
"2.0","GENERATED VIA SPACE-TRACK.ORG API","2024-05-03T17:10:48","18 SPCS","STARLINK-30805","2023-170J","EARTH","TEME","UTC","SGP4","2024-05-03T10:21:04.795200","15.02552430","0.00009530","43.0006","265.0325","270.4769","89.5964","0","U","58214","999","2870","0.00041839000000","0.00005455","0.0000000000000","6937.166","95.837","559.692","558.370","PAYLOAD","LARGE","US","2023-11-03","AFETR","","4306126","256363605","0 STARLINK-30805","1 58214U 23170J   24124.43130550  .00005455  00000-0  41839-3 0  9994","2 58214  43.0006 265.0325 0000953 270.4769  89.5964 15.02552430 28705"
"2.0","GENERATED VIA SPACE-TRACK.ORG API","2024-05-03T22:56:19","18 SPCS","STARLINK-30805","2023-170J","EARTH","TEME","UTC","SGP4","2024-05-03T19:55:27.420672","15.02535435","0.00013300","43.0039","262.8653","271.6405","88.4285","0","U","58214","999","2877","-0.00000426190000","-0.00000261","0.0000000000000","6937.218","95.838","560.006","558.161","PAYLOAD","LARGE","US","2023-11-03","AFETR","","4306358","256371505","0 STARLINK-30805","1 58214U 23170J   24124.83017848 -.00000261  00000-0 -42619-5 0  9993","2 58214  43.0039 262.8653 0001330 271.6405  88.4285 15.02535435 28777"
